{"type": "FeatureCollection", "features": [{"type":"Feature","geometry":{"type":"Point","coordinates":[-75.240314,39.962839]},"properties":{"organization":"ACHIEVEability","street_address":"35 N. 60th St","objectid":1,"zip_code":19139,"phone_number":"215-557-8484 x 8839"}},{"type":"Feature","geometry":{"type":"Point","coordinates":[-75.175952,40.037161]},"properties":{"organization":"Center in the Park","street_address":"5818 Germantown Ave","objectid":2,"zip_code":19144,"phone_number":"215-848-7722"}},{"type":"Feature","geometry":{"type":"Point","coordinates":[-75.135428,39.992941]},"properties":{"organization":"Congreso de Latinos Unidos, Inc.","street_address":"216 W. Somerset St","objectid":3,"zip_code":19133,"phone_number":"215-763-8870"}},{"type":"Feature","geometry":{"type":"Point","coordinates":[-75.179182,39.927485]},"properties":{"organization":"Diversified Community Servies","street_address":"1920 South 20th St","objectid":4,"zip_code":19145,"phone_number":"215-336-3511"}},{"type":"Feature","geometry":{"type":"Point","coordinates":[-75.175706,40.035355]},"properties":{"organization":"Germantown Crisis Ministry","street_address":"35 West Chelten Ave","objectid":5,"zip_code":19144,"phone_number":"215-843-2340"}},{"type":"Feature","geometry":{"type":"Point","coordinates":[-75.132252,40.026914]},"properties":{"organization":"Greater Philadelphia Asian Social Service (GPASS)","street_address":"4943 North 5th St","objectid":6,"zip_code":19120,"phone_number":"215-456-1662"}},{"type":"Feature","geometry":{"type":"Point","coordinates":[-75.081144,40.019217]},"properties":{"organization":"Hispanic Association of Contractors & Enterprises (HACE)","street_address":"4907 Frankford Ave","objectid":7,"zip_code":19124,"phone_number":"215-437-7867"}},{"type":"Feature","geometry":{"type":"Point","coordinates":[-75.143629,40.009787]},"properties":{"organization":"Hunting Park NAC","street_address":"3760 North Delhi St","objectid":8,"zip_code":19140,"phone_number":"215-225-5560"}},{"type":"Feature","geometry":{"type":"Point","coordinates":[-75.199439,39.964131]},"properties":{"organization":"Mt. Vernon Manor CDC/NAC","street_address":"631 N. 39th St","objectid":9,"zip_code":19104,"phone_number":"215-475-9492"}},{"type":"Feature","geometry":{"type":"Point","coordinates":[-75.125323,39.983457]},"properties":{"organization":"New Kensington CDC","street_address":"2515 Frankford Ave","objectid":10,"zip_code":19125,"phone_number":"215-427-0350"}},{"type":"Feature","geometry":{"type":"Point","coordinates":[-75.156083,40.019207]},"properties":{"organization":"Nicetown CDC","street_address":"4300 Germantown Ave","objectid":11,"zip_code":19140,"phone_number":"215-329-1824"}},{"type":"Feature","geometry":{"type":"Point","coordinates":[-75.155553,40.064945]},"properties":{"organization":"Nicetown CDC: Satellite Office","street_address":"2001 Tulpehocken St","objectid":12,"zip_code":19138,"phone_number":"215-329-1824"}},{"type":"Feature","geometry":{"type":"Point","coordinates":[-75.231001,39.925595]},"properties":{"organization":"SOUTHWEST CDC","street_address":"6328 Paschall Ave","objectid":13,"zip_code":19142,"phone_number":"215-729-0800"}},{"type":"Feature","geometry":{"type":"Point","coordinates":[-75.179737,39.987928]},"properties":{"organization":"Strawberry Mansion NAC, Inc.","street_address":"2829 West Diamond St","objectid":14,"zip_code":19121,"phone_number":"215-235-7505"}},{"type":"Feature","geometry":{"type":"Point","coordinates":[-75.159489,39.923258]},"properties":{"organization":"United Communities","street_address":"2029 South 8th St","objectid":15,"zip_code":19148,"phone_number":"215-468-1645"}},{"type":"Feature","geometry":{"type":"Point","coordinates":[-75.211979,39.969379]},"properties":{"organization":"We Never Say Never","street_address":"4427 Lancaster Ave","objectid":16,"zip_code":19104,"phone_number":"215-452-0440"}}]}